{
  "norad_id": 65912,
  "name": "STARLINK-35508",
  "history": [
    {
      "epoch": "2026-05-05T18:17:08.343168Z",
      "apogee_km": 475.9393557157273,
      "perigee_km": 474.44382235102876,
      "latitude_deg": 3.045997640480099e-05,
      "longitude_deg": 122.84502040536368,
      "height_km": 476.4586976727366,
      "semi_major_axis_km": 6853.328589033378,
      "eccentricity": 0.00010911,
      "inclination_deg": 53.1608,
      "raan_deg": 260.762,
      "arg_perigee_deg": 119.5269,
      "mean_anomaly_deg": 240.5841,
      "mean_motion_rev_day": 15.30207864
    },
    {
      "epoch": "2026-05-07T14:10:38.838720Z",
      "apogee_km": 476.03577950319595,
      "perigee_km": 474.2457033571345,
      "latitude_deg": 1.4041940973863329e-05,
      "longitude_deg": 174.17056424721542,
      "height_km": 476.3706919967058,
      "semi_major_axis_km": 6853.2777414301645,
      "eccentricity": 0.0001306,
      "inclination_deg": 53.1607,
      "raan_deg": 252.2672,
      "arg_perigee_deg": 111.754,
      "mean_anomaly_deg": 248.36,
      "mean_motion_rev_day": 15.30224894
    }
  ]
}